{"type": "FeatureCollection", "features": [ {"type": "Feature", "properties": {"norad_id": 32432, "name": "FENGYUN 1C DEB", "group": "fengyun-1c-debris", "lat": 36.80032412975741, "lon": -158.24775767054822, "alt_km": 837.8057789440227, "timestamp": "2025-12-05T04:52:15.578384+00:00", "meta": {"OBJECT_NAME": "FENGYUN 1C DEB", "OBJECT_ID": "1999-025DAU", "EPOCH": "2025-12-02T08:25:01.319808", "MEAN_MOTION": 14.52224437, "ECCENTRICITY": 0.01734006, "INCLINATION": 98.1727, "RA_OF_ASC_NODE": 12.8023, "ARG_OF_PERICENTER": 337.8892, "MEAN_ANOMALY": 21.4887, "EPHEMERIS_TYPE": 0, "CLASSIFICATION_TYPE": "U", "NORAD_CAT_ID": 32432, "ELEMENT_SET_NO": 999, "REV_AT_EPOCH": 70544, "BSTAR": 0.0019660869, "MEAN_MOTION_DOT": 9.677e-05, "MEAN_MOTION_DDOT": 0}, "tle": {"line1": "1 32432U 99025DAU 25336.35070972  .00009677  00000+0  19661-2 0  9994", "line2": "2 32432  98.1727  12.8023 0173400 337.8892  21.4887 14.52224437705445"}}, "geometry": {"type": "Point", "coordinates": [-158.24775767054822, 36.80032412975741]}}, {"type": "Feature", "properties": {"norad_id": 32440, "name": "FENGYUN 1C DEB", "group": "fengyun-1c-debris", "lat": 37.56722922146338, "lon": -172.21959898995513, "alt_km": 949.0613959592047, "timestamp": "2025-12-05T04:52:15.578393+00:00", "meta": {"OBJECT_NAME": "FENGYUN 1C DEB", "OBJECT_ID": "1999-025DBC", "EPOCH": "2025-12-03T20:55:48.416160", "MEAN_MOTION": 13.61179986, "ECCENTRICITY": 0.0321289, "INCLINATION": 99.1543, "RA_OF_ASC_NODE": 193.6557, "ARG_OF_PERICENTER": 113.9046, "MEAN_ANOMALY": 249.6104, "EPHEMERIS_TYPE": 0, "CLASSIFICATION_TYPE": "U", "NORAD_CAT_ID": 32440, "ELEMENT_SET_NO": 999, "REV_AT_EPOCH": 60165, "BSTAR": 0.0043308, "MEAN_MOTION_DOT": 4.607e-05, "MEAN_MOTION_DDOT": 0}, "tle": {"line1": "1 32440U 99025DBC 25337.87208815  .00004607  00000+0  43308-2 0  9993", "line2": "2 32440  99.1543 193.6557 0321289 113.9046 249.6104 13.61179986601656"}}, "geometry": {"type": "Point", "coordinates": [-172.21959898995513, 37.56722922146338]}}, {"type": "Feature", "properties": {"norad_id": 32447, "name": "FENGYUN 1C DEB", "group": "fengyun-1c-debris", "lat": 63.67211365339307, "lon": -22.971594510923442, "alt_km": 843.0672516340674, "timestamp": "2025-12-05T04:52:15.578402+00:00", "meta": {"OBJECT_NAME": "FENGYUN 1C DEB", "OBJECT_ID": "1999-025DBK", "EPOCH": "2025-11-26T07:16:04.677024", "MEAN_MOTION": 13.9600218, "ECCENTRICITY": 0.00802127, "INCLINATION": 98.9321, "RA_OF_ASC_NODE": 346.9282, "ARG_OF_PERICENTER": 86.1501, "MEAN_ANOMALY": 274.8828, "EPHEMERIS_TYPE": 0, "CLASSIFICATION_TYPE": "U", "NORAD_CAT_ID": 32447, "ELEMENT_SET_NO": 999, "REV_AT_EPOCH": 67649, "BSTAR": 5.5043618e-05, "MEAN_MOTION_DOT": 3.5e-07, "MEAN_MOTION_DDOT": 0}, "tle": {"line1": "1 32447U 99025DBK 25330.30283191  .00000035  00000+0  55044-4 0  9994", "line2": "2 32447  98.9321 346.9282 0080212  86.1501 274.8828 13.96002180676493"}}, "geometry": {"type": "Point", "coordinates": [-22.971594510923442, 63.67211365339307]}}, {"type": "Feature", "properties": {"norad_id": 32451, "name": "FENGYUN 1C DEB", "group": "fengyun-1c-debris", "lat": -12.632872337622876, "lon": -39.25134637623122, "alt_km": 1035.5800366756675, "timestamp": "2025-12-05T04:52:15.578412+00:00", "meta": {"OBJECT_NAME": "FENGYUN 1C DEB", "OBJECT_ID": "1999-025DBP", "EPOCH": "2025-12-04T04:41:16.250208", "MEAN_MOTION": 13.86505433, "ECCENTRICITY": 0.0185796, "INCLINATION": 99.9697, "RA_OF_ASC_NODE": 317.4163, "ARG_OF_PERICENTER": 217.4732, "MEAN_ANOMALY": 141.3349, "EPHEMERIS_TYPE": 0, "CLASSIFICATION_TYPE": "U", "NORAD_CAT_ID": 32451, "ELEMENT_SET_NO": 999, "REV_AT_EPOCH": 61646, "BSTAR": 0.0038566, "MEAN_MOTION_DOT": 5.079e-05, "MEAN_MOTION_DDOT": 0}, "tle": {"line1": "1 32451U 99025DBP 25338.19532697  .00005079  00000+0  38566-2 0  9993", "line2": "2 32451  99.9697 317.4163 0185796 217.4732 141.3349 13.86505433616469"}}, "geometry": {"type": "Point", "coordinates": [-39.25134637623122, -12.632872337622876]}}, {"type": "Feature", "properties": {"norad_id": 32453, "name": "FENGYUN 1C DEB", "group": "fengyun-1c-debris", "lat": -16.32505017455544, "lon": 65.92088105888664, "alt_km": 830.1544923848332, "timestamp": "2025-12-05T04:52:15.578421+00:00", "meta": {"OBJECT_NAME": "FENGYUN 1C DEB", "OBJECT_ID": "1999-025DBR", "EPOCH": "2025-11-28T10:57:12.038976", "MEAN_MOTION": 14.02200263, "ECCENTRICITY": 0.00971069, "INCLINATION": 99.3715, "RA_OF_ASC_NODE": 241.7597, "ARG_OF_PERICENTER": 245.8452, "MEAN_ANOMALY": 113.2535, "EPHEMERIS_TYPE": 0, "CLASSIFICATION_TYPE": "U", "NORAD_CAT_ID": 32453, "ELEMENT_SET_NO": 999, "REV_AT_EPOCH": 93228, "BSTAR": 0.00096884375, "MEAN_MOTION_DOT": 1.498e-05, "MEAN_MOTION_DDOT": 0}, "tle": {"line1": "1 32453U 99025DBR 25332.45638934  .00001498  00000+0  96884-3 0  9998", "line2": "2 32453  99.3715 241.7597 0097106 245.8452 113.2535 14.02200263932285"}}, "geometry": {"type": "Point", "coordinates": [65.92088105888664, -16.32505017455544]}}, {"type": "Feature", "properties": {"norad_id": 32455, "name": "FENGYUN 1C DEB", "group": "fengyun-1c-debris", "lat": 12.334055544169663, "lon": -8.072579695275186, "alt_km": 748.2500598349543, "timestamp": "2025-12-05T04:52:15.578430+00:00", "meta": {"OBJECT_NAME": "FENGYUN 1C DEB", "OBJECT_ID": "1999-025DBT", "EPOCH": "2025-11-30T08:31:26.630112", "MEAN_MOTION": 13.92295541, "ECCENTRICITY": 0.02377178, "INCLINATION": 101.7332, "RA_OF_ASC_NODE": 163.1966, "ARG_OF_PERICENTER": 176.0844, "MEAN_ANOMALY": 184.2238, "EPHEMERIS_TYPE": 0, "CLASSIFICATION_TYPE": "U", "NORAD_CAT_ID": 32455, "ELEMENT_SET_NO": 999, "REV_AT_EPOCH": 64243, "BSTAR": 0.0029260204, "MEAN_MOTION_DOT": 4.672e-05, "MEAN_MOTION_DDOT": 0}, "tle": {"line1": "1 32455U 99025DBT 25334.35516933  .00004672  00000+0  29260-2 0  9995", "line2": "2 32455 101.7332 163.1966 0237717 176.0844 184.2238 13.92295541642435"}}, "geometry": {"type": "Point", "coordinates": [-8.072579695275186, 12.334055544169663]}}, {"type": "Feature", "properties": {"norad_id": 32456, "name": "FENGYUN 1C DEB", "group": "fengyun-1c-debris", "lat": 45.05032030737918, "lon": -48.85376398753082, "alt_km": 1196.7742501771736, "timestamp": "2025-12-05T04:52:15.578439+00:00", "meta": {"OBJECT_NAME": "FENGYUN 1C DEB", "OBJECT_ID": "1999-025DBU", "EPOCH": "2025-11-28T15:45:38.634624", "MEAN_MOTION": 13.3556135, "ECCENTRICITY": 0.03790377, "INCLINATION": 103.6671, "RA_OF_ASC_NODE": 108.2999, "ARG_OF_PERICENTER": 253.9297, "MEAN_ANOMALY": 101.9772, "EPHEMERIS_TYPE": 0, "CLASSIFICATION_TYPE": "U", "NORAD_CAT_ID": 32456, "ELEMENT_SET_NO": 999, "REV_AT_EPOCH": 60428, "BSTAR": 0.0020707074, "MEAN_MOTION_DOT": 1.513e-05, "MEAN_MOTION_DDOT": 0}, "tle": {"line1": "1 32456U 99025DBU 25332.65669716  .00001513  00000+0  20707-2 0  9993", "line2": "2 32456 103.6671 108.2999 0379037 253.9297 101.9772 13.35561350604289"}}, "geometry": {"type": "Point", "coordinates": [-48.85376398753082, 45.05032030737918]}}, {"type": "Feature", "properties": {"norad_id": 32458, "name": "FENGYUN 1C DEB", "group": "fengyun-1c-debris", "lat": -20.0518156843852, "lon": 1.7123364968660952, "alt_km": 675.8727719927083, "timestamp": "2025-12-05T04:52:15.578449+00:00", "meta": {"OBJECT_NAME": "FENGYUN 1C DEB", "OBJECT_ID": "1999-025DBW", "EPOCH": "2025-12-04T07:36:40.919328", "MEAN_MOTION": 14.62058524, "ECCENTRICITY": 0.004081, "INCLINATION": 99.0463, "RA_OF_ASC_NODE": 357.4098, "ARG_OF_PERICENTER": 39.6877, "MEAN_ANOMALY": 320.7295, "EPHEMERIS_TYPE": 0, "CLASSIFICATION_TYPE": "U", "NORAD_CAT_ID": 32458, "ELEMENT_SET_NO": 999, "REV_AT_EPOCH": 67666, "BSTAR": 0.0039607, "MEAN_MOTION_DOT": 0.00020121, "MEAN_MOTION_DDOT": 0}, "tle": {"line1": "1 32458U 99025DBW 25338.31714027  .00020121  00000+0  39607-2 0  9995", "line2": "2 32458  99.0463 357.4098 0040810  39.6877 320.7295 14.62058524676660"}}, "geometry": {"type": "Point", "coordinates": [1.7123364968660952, -20.0518156843852]}}, {"type": "Feature", "properties": {"norad_id": 32459, "name": "FENGYUN 1C DEB", "group": "fengyun-1c-debris", "lat": -34.66825110390287, "lon": 167.8269057920815, "alt_km": 604.713315571069, "timestamp": "2025-12-05T04:52:15.578458+00:00", "meta": {"OBJECT_NAME": "FENGYUN 1C DEB", "OBJECT_ID": "1999-025DBX", "EPOCH": "2025-12-01T11:39:14.293440", "MEAN_MOTION": 14.42724223, "ECCENTRICITY": 0.02128066, "INCLINATION": 98.3034, "RA_OF_ASC_NODE": 350.0004, "ARG_OF_PERICENTER": 220.4744, "MEAN_ANOMALY": 138.0452, "EPHEMERIS_TYPE": 0, "CLASSIFICATION_TYPE": "U", "NORAD_CAT_ID": 32459, "ELEMENT_SET_NO": 999, "REV_AT_EPOCH": 94388, "BSTAR": 0.00065445905, "MEAN_MOTION_DOT": 2.812e-05, "MEAN_MOTION_DDOT": 0}, "tle": {"line1": "1 32459U 99025DBX 25335.48558210  .00002812  00000+0  65446-3 0  9999", "line2": "2 32459  98.3034 350.0004 0212806 220.4744 138.0452 14.42724223943882"}}, "geometry": {"type": "Point", "coordinates": [167.8269057920815, -34.66825110390287]}}, {"type": "Feature", "properties": {"norad_id": 32460, "name": "FENGYUN 1C DEB", "group": "fengyun-1c-debris", "lat": -79.46501189512858, "lon": -103.8811119416954, "alt_km": 999.3262301258592, "timestamp": "2025-12-05T04:52:15.578467+00:00", "meta": {"OBJECT_NAME": "FENGYUN 1C DEB", "OBJECT_ID": "1999-025DBY", "EPOCH": "2025-12-03T03:14:00.944160", "MEAN_MOTION": 13.89519462, "ECCENTRICITY": 0.01856328, "INCLINATION": 98.0192, "RA_OF_ASC_NODE": 123.6253, "ARG_OF_PERICENTER": 150.9185, "MEAN_ANOMALY": 210.247, "EPHEMERIS_TYPE": 0, "CLASSIFICATION_TYPE": "U", "NORAD_CAT_ID": 32460, "ELEMENT_SET_NO": 999, "REV_AT_EPOCH": 65120, "BSTAR": 0.0017619598, "MEAN_MOTION_DOT": 2.44e-05, "MEAN_MOTION_DDOT": 0}, "tle": {"line1": "1 32460U 99025DBY 25337.13473315  .00002440  00000+0  17620-2 0  9994", "line2": "2 32460  98.0192 123.6253 0185632 150.9185 210.2470 13.89519462651200"}}, "geometry": {"type": "Point", "coordinates": [-103.8811119416954, -79.46501189512858]}}]}